{"fetched_at":"2026-07-19T07:04:50.778Z","source":"https://celestrak.org/NORAD/elements/gp.php?GROUP=planet&FORMAT=JSON","constellation":"tanager","records":[{"OBJECT_NAME":"TANAGER-1","OBJECT_ID":"2024-149AR","EPOCH":"2026-07-18T18:41:05.804160","CLASSIFICATION_TYPE":"U","MEAN_MOTION":15.43916044,"ECCENTRICITY":0.000198,"INCLINATION":97.232,"RA_OF_ASC_NODE":293.8912,"ARG_OF_PERICENTER":121.6736,"MEAN_ANOMALY":238.4706,"EPHEMERIS_TYPE":0,"NORAD_CAT_ID":60507,"ELEMENT_SET_NO":999,"REV_AT_EPOCH":10791,"BSTAR":0.000005777,"MEAN_MOTION_DOT":0.00000178,"MEAN_MOTION_DDOT":0}]}
