TANAGER-1               
1 60507U 24149AR  26199.77853940  .00000178  00000+0  57770-5 0  9994
2 60507  97.2320 293.8912 0001979 121.6736 238.4706 15.43916044107914
